ONEWEB-0446             
1 51640U 22012U   24271.43568655 -.00000033  00000+0 -13026-3 0  9993
2 51640  87.8977 161.2250 0001930  67.9823 292.1509 13.10378176127116
ONEWEB-0448             
1 51641U 22012V   24271.44067112  .00000236  00000+0  63857-3 0  9997
2 51641  87.8978 161.2244 0001710  78.6182 281.5137 13.10377980127081
ONEWEB-0449             
1 51642U 22012W   24271.44565914  .00000491  00000+0  13712-2 0  9998
2 51642  87.8971 161.2128 0001540  67.8404 292.2887 13.10377109127099
ONEWEB-0451             
1 51643U 22012X   24271.59641190  .00000040  00000+0  69867-4 0  9990
2 51643  87.9109 130.8654 0001632  81.0360 279.0957 13.17684904131010
ONEWEB-0452             
1 51644U 22012Y   24271.59474089  .00000044  00000+0  80196-4 0  9994
2 51644  87.9116 130.9120 0001256  79.2017 280.9256 13.17692687131029
ONEWEB-0456             
1 51646U 22012AA  24271.45561801  .00000709  00000+0  19942-2 0  9997
2 51646  87.8965 161.1794 0001964  80.5920 279.5429 13.10377249127139
ONEWEB-0457             
1 51647U 22012AB  24271.43236565 -.00000464  00000+0 -13662-2 0  9995
2 51647  87.8978 161.2153 0001724  65.5547 294.5760 13.10376499127137
ONEWEB-0458             
1 51648U 22012AC  24271.45396868  .00000955  00000+0  26983-2 0  9994
2 51648  87.8939 161.2335 0002783  60.1807 299.9597 13.10378003128392
